LEMUR-2-STARLIGHT       
1 66783U 25276DY  26191.13038764  .00004687  00000+0  38743-3 0  9995
2 66783  97.5230 260.9845 0014771  62.0755 298.1962 14.99316422 33630
LEMUR-2-TARTIFLETTE     
1 66784U 25276DZ  26191.99635084  .00003421  00000+0  28423-3 0  9997
2 66784  97.5235 261.8286 0013856  67.5753 292.6937 14.99308795 33765
LEMUR-2-VUKASIN         
1 66785U 25276EA  26191.43660917  .00003477  00000+0  28036-3 0  9991
2 66785  97.5242 261.6384 0003790  68.8123 291.3506 15.00520064 33634
LEMUR-2-HOTSPUR-TOM     
1 66786U 25276EB  26191.59002265  .00003572  00000+0  29732-3 0  9995
2 66786  97.5222 261.4122 0013855  59.8577 300.4018 14.99212666 33630
LEMUR-2-MYRA            
1 66787U 25276EC  26192.00210503  .00003666  00000+0  29407-3 0  9992
2 66787  97.5220 262.1056 0018558  66.9551 293.3628 15.00558625 33783
LEMUR-2 FIKRETDENGIZ    
1 67363U 26004A   26190.72270687  .00002433  00000+0  26761-3 0  9990
2 67363  97.8024 188.9369 0010439  71.1066 289.1282 14.88491309 26635
TWILIGHT-1 OBJECT B     
1 67364U 26004B   26192.50585705  .00001025  00000+0  11821-3 0  9996
2 67364  97.8072 190.6963 0009956  56.5620 303.6547 14.87785770 26907
LEMUR-2-MARIO-SOUSA     
1 67365U 26004C   26192.51810856  .00002309  00000+0  25289-3 0  9995
2 67365  97.7995 190.7004 0010009  67.4962 292.7314 14.88708359 26919
LEMUR-2-SONNENBLUME     
1 67367U 26004E   26192.52029411  .00001438  00000+0  16081-3 0  9999
2 67367  97.7992 190.6770 0009562  68.6974 291.5263 14.88441827 26919
LEMUR-2-WOBLER          
1 67368U 26004F   26192.30853560  .00001924  00000+0  21191-3 0  9994
2 67368  97.8047 190.6154 0009709  60.8200 299.3987 14.88681461 26882
LEMUR-2-GRAM-E-SUE      
1 67370U 26004H   26192.50204978  .00001139  00000+0  12819-3 0  9997
2 67370  97.7979 190.6754 0008751  71.0055 289.2110 14.88579696 26918
LEMUR-2-KATIE           
1 67387U 26004AA  26192.53026088  .00002909  00000+0  30563-3 0  9994
2 67387  97.8041 191.2424 0003762  42.1241 318.0266 14.90230139 26935
LEMUR-2-HCS-BAZUS       
1 67388U 26004AB  26192.52865262  .00001637  00000+0  17443-3 0  9998
2 67388  97.8030 191.2196 0003252  42.3339 317.8129 14.90248850 26938
